TORO                    
1 60530U 24149BQ  26076.15236619  .00002345  00000+0  21383-3 0  9991
2 60530  97.6842 152.5418 0001406  98.1047 262.0334 14.96052336 86191
HYPSO-2                 
1 60531U 24149BR  26076.45565737  .00001721  00000+0  14952-3 0  9992
2 60531  97.6876 154.0681 0000471  63.3755 296.7516 14.98303165 86310
LEMU NGE                
1 60532U 24149BS  26076.54151403  .00002067  00000+0  19647-3 0  9994
2 60532  97.6891 153.3613 0000956  52.4936 307.6371 14.94539064 86263
LEMUR-2-STELLA          
1 60533U 24149BT  26076.48194236  .00008252  00000+0  51615-3 0  9992
2 60533  97.6771 158.6780 0001356  94.8612 265.2771 15.09680420 86656
SATELIOT_2              
1 60534U 24149BU  26076.60382361  .00001584  00000+0  14644-3 0  9997
2 60534  97.6876 153.2353 0001541  86.7722 273.3676 14.95973937 86272
NIGHTJAR                
1 60535U 24149BV  26076.45856880  .00001923  00000+0  16588-3 0  9999
2 60535  97.6896 154.4639 0001461  69.2476 290.8904 14.98449195129136
LEMUR-2-MARHISYAM       
1 60536U 24149BW  26076.49807202  .00008511  00000+0  53881-3 0  9995
2 60536  97.6915 159.0433 0003264  90.9561 269.2042 15.09223500 86645
SATELIOT_4              
1 60537U 24149BX  26076.63342722  .00002167  00000+0  19675-3 0  9997
2 60537  97.6797 152.8542 0002091  34.2266 325.9090 14.96301006 86282
PICO-02A021             
1 60538U 24149BY  26076.47989526  .00004086  00000+0  31382-3 0  9990
2 60538  97.6820 156.1556 0003296 350.3167   9.7994 15.02309516 85968
ICEYE-X43               
1 60539U 24149BZ  26076.61711393  .00002708  00000+0  22597-3 0  9999
2 60539  97.6820 154.8225 0002586  57.1253 303.0218 14.99396601 86399
HAWK-10A                
1 60540U 24149CA  26076.49074833  .00002051  00000+0  18700-3 0  9990
2 60540  97.6941 153.9794 0004156  43.2722 316.8825 14.96208504 86272
UMBRA-09                
1 60541U 24149CB  26076.15960748  .00012416  00000+0  66677-3 0  9995
2 60541  97.6984 161.9998 0001337 233.3193 126.7916 15.15066846 86774
QPS-SAR-8 (AMATERU-IV)  
1 60542U 24149CC  26076.22673838  .00004846  00000+0  36324-3 0  9999
2 60542  97.6717 156.2033 0004149  75.1977 284.9707 15.03140434 86455
ARCTIC WEATHER SATELLITE
1 60543U 24149CD  26076.60810669  .00000943  00000+0  10389-3 0  9994
2 60543  97.6866 149.6651 0003434  71.4964 288.6626 14.89814632 85668
CAPELLA-15 (ACADIA-5)   
1 60544U 24149CE  26076.46937830 -.00002544  00000+0 -24323-3 0  9993
2 60544  97.6836 151.6359 0003732  37.4487 322.6992 14.92420106 86172
HAWK-10B                
1 60545U 24149CF  26076.62437507  .00002183  00000+0  19866-3 0  9991
2 60545  97.6867 153.5574 0006347  52.4380 307.7417 14.96209689 86295
ICEYE-X39               
1 60546U 24149CG  26076.46249715  .00002011  00000+0  16964-3 0  9992
2 60546  97.6830 154.7318 0004196  24.9873 335.1552 14.99273998 86377
UMBRA-10                
1 60547U 24149CH  26076.22518630  .00012151  00000+0  65249-3 0  9998
2 60547  97.6994 162.0865 0000593 174.3150 185.8088 15.15075135 86795
ICEYE-X33               
1 60548U 24149CJ  26076.11008663  .00004104  00000+0  32430-3 0  9992
2 60548  97.7038 155.8886 0005996 103.3543 256.8350 15.01214173 86398
ICEYE-X40               
1 60549U 24149CK  26076.17577774  .00001712  00000+0  15143-3 0  9997
2 60549  97.6867 154.1562 0005618  42.6037 317.5620 14.97600263 86304
SATELIOT_1              
1 60550U 24149CL  26076.63977435  .00001921  00000+0  16908-3 0  9990
2 60550  97.6811 154.0717 0007436  35.7310 324.4409 14.97652713 86368
BRO-14                  
1 60551U 24149CM  26076.63262853  .00001567  00000+0  14494-3 0  9996
2 60551  97.6924 154.0495 0007880  54.2840 305.9113 14.95954824 86300
SATELIOT_3              
1 60552U 24149CN  26076.61525916  .00002086  00000+0  18326-3 0  9992
2 60552  97.6862 154.7537 0005545  46.1043 314.0636 14.97643090 86377
BRO-15                  
1 60553U 24149CP  26076.61273295  .00001423  00000+0  13221-3 0  9996
2 60553  97.6851 153.7185 0008816  43.2989 316.8924 14.95911699 86310
UM5-RIBAT               
1 60554U 24149CQ  26076.46450555  .00002502  00000+0  20316-3 0  9998
2 60554  97.6761 155.4861 0002524  74.5855 285.5647 15.00528349 86430
UM5-EOSAT               
1 60555U 24149CR  26076.18972985  .00002383  00000+0  19154-3 0  9999
2 60555  97.6831 156.0628 0007941  87.2243 272.9890 15.00954635 86416
KANYINI                 
1 60556U 24149CS  26076.63616097  .00026839  00000+0  54620-3 0  9998
2 60556  97.3773 161.4790 0002217 184.6006 175.5224 15.46249921 88336
TROOP-F2                
1 60557U 24149CT  26076.19758832  .00115266  00000+0  82731-3 0  9991
2 60557  97.3595 167.5318 0003693 218.2171 141.8831 15.73303036 88729
FLOCK 4BE-35            
1 60558U 24149CU  26076.48311925  .00068677  00000+0  14358-2 0  9994
2 60558  97.3782 159.8477 0005636 237.4343 122.6362 15.45230291 88201
FLOCK 4BE-5             
1 60559U 24149CV  26076.21318227  .00012759  00000+0  35104-3 0  9991
2 60559  97.3879 159.5174 0002591 251.1863 108.9101 15.37311005 88131
FLOCK 4BE-12            
1 60560U 24149CW  26076.48887065  .00082866  00000+0  15414-2 0  9990
2 60560  97.3750 160.6150 0006989 241.4854 118.5693 15.48561344 88278
FLOCK 4BE-3             
1 60561U 24149CX  26076.21000343  .00012953  00000+0  34286-3 0  9997
2 60561  97.3738 159.4371 0003623 241.8350 118.2530 15.38501999 88189
HYPERFIELD-1A           
1 60562U 24149CY  26076.48353995  .00005328  00000+0  18719-3 0  9992
2 60562  97.3844 157.1764 0003653 275.2814  84.8009 15.29805629 88016
FLOCK 4BE-19            
1 60563U 24149CZ  26076.53083621  .00015064  00000+0  37045-3 0  9996
2 60563  97.3776 160.8947 0003509 246.4343 113.6535 15.40722631 88291
PTD-4 (LISA-T)          
1 60565U 24149DB  26076.51194688  .00015475  00000+0  75916-3 0  9997
2 60565  97.6986 163.5327 0002401  19.1802 340.9521 15.18199053 86891
ION SCV-012             
1 60573U 24149DK  26076.46338674  .00000871  00000+0  85364-4 0  9998
2 60573  97.6836 152.4054 0004156  47.3929 312.7641 14.94725418 86219
GNOMES-5                
1 60574U 24149DL  26076.48990773  .00003550  00000+0  28741-3 0  9997
2 60574  97.6862 155.4718 0008102  69.3982 290.8110 15.00356601 86407
HAWK-10C                
1 60575U 24149DM  26076.62469733  .00002180  00000+0  19837-3 0  9995
2 60575  97.6789 152.9891 0003656  34.9081 325.2380 14.96212962 86291
LEMUR-2-AHMED-ASRAR     
1 60576U 24149DN  26076.48335765  .00007761  00000+0  47383-3 0  9994
2 60576  97.7028 160.7831 0000978 357.1385   2.9839 15.10585073 86719
LEMUR-2-LLOYD           
1 60577U 24149DP  26076.62555250  .00007708  00000+0  51348-3 0  9991
2 60577  97.6789 157.8269 0005306 104.4863 255.6954 15.07370280 86598
LEMUR-2-SQUIRRELCOMM    
1 60578U 24149DQ  26076.20235479  .00004105  00000+0  28588-3 0  9992
2 60578  97.6751 157.4742 0005574  21.7180 338.4282 15.05999726 86550
LEMUR-2-SIERRINI        
1 60579U 24149DR  26076.63466222  .00008943  00000+0  57092-3 0  9998
2 60579  97.6876 158.9599 0006680 128.0522 232.1310 15.08889574 86649
SEDNA-1                 
1 60580U 24149DS  26076.47487032  .00005015  00000+0  35066-3 0  9998
2 60580  97.6680 157.4258 0007636 303.7327  56.3171 15.05730213 86583
STARLINK-31844          
1 60583U 24150A   26076.25311287 -.00000045  00000+0  10599-4 0  9991
2 60583  53.1597 271.5922 0001064  97.0881 263.0241 15.30179991 89208
STARLINK-32204          
1 60584U 24150B   26075.82228087  .00000695  00000+0  35584-4 0  9990
2 60584  53.1610 273.8791 0001138  86.7317 273.3814 15.30199132 89136
STARLINK-32130          
1 60585U 24150C   26076.56396716 -.00000529  00000+0 -57213-5 0  9990
2 60585  53.1607 270.6878 0001224  97.9400 262.1740 15.30202752 89167
STARLINK-32173          
1 60586U 24150D   26076.52808373  .00001321  00000+0  56760-4 0  9998
2 60586  53.1584 270.4605 0001360 104.9349 255.1803 15.30185350 89245
STARLINK-31911          
1 60587U 24150E   26075.83600215  .00001191  00000+0  52332-4 0  9993
2 60587  53.1603 273.9643 0001336  91.8748 268.2406 15.30200328 89054
STARLINK-31994          
1 60588U 24150F   26076.52069866  .00002684  00000+0  10276-3 0  9990
2 60588  53.1584 270.4146 0001287 102.6378 257.4766 15.30189136 89162
STARLINK-32169          
1 60589U 24150G   26076.24901026  .00006430  00000+0  22929-3 0  9994
2 60589  53.1596 272.2767 0001318 102.3529 257.7619 15.30162579 89190
STARLINK-32209          
1 60590U 24150H   26076.27210324 -.00000946  00000+0 -19847-4 0  9997
2 60590  53.1590 271.7075 0000726  90.2019 269.9065 15.30196731 89202
STARLINK-32170          
1 60591U 24150J   26076.24372963  .00003516  00000+0  13083-3 0  9992
2 60591  53.1584 272.2438 0001386  94.7296 265.3863 15.30186733 89111
STARLINK-31497          
1 60592U 24150K   26076.54707479  .00003548  00000+0  13186-3 0  9999
2 60592  53.1600 270.5795 0001189  89.3971 270.7166 15.30200734 89247
STARLINK-32161          
1 60593U 24150L   26076.53125075  .00004112  00000+0  15089-3 0  9997
2 60593  53.1592 270.4818 0001384  83.8474 276.2684 15.30198784 89165
STARLINK-32210          
1 60594U 24150M   26076.25627085  .00001183  00000+0  52073-4 0  9995
2 60594  53.1615 271.6054 0001218 102.2715 257.8423 15.30189043 89206
STARLINK-32202          
1 60595U 24150N   26076.56079721  .00001436  00000+0  60602-4 0  9996
2 60595  53.1609 270.6666 0001057  98.1159 261.9962 15.30192195 89244
STARLINK-31930          
1 60596U 24150P   26076.06666156  .00000195  00000+0  18699-4 0  9996
2 60596  53.1597 272.5573 0001326  71.3354 288.7790 15.30193631 89093
STARLINK-32162          
1 60597U 24150Q   26076.57346022  .00000585  00000+0  31872-4 0  9991
2 60597  53.1609 270.7432 0000943 100.5645 259.5462 15.30192185 89246
STARLINK-32208          
1 60598U 24150R   26075.92347864  .00000736  00000+0  36997-4 0  9996
2 60598  53.1596 273.8017 0001297  97.9873 262.1275 15.30194106 89146
